GPS BIIR-2  (PRN 13)    
1 24876U 97035A   20158.47072806  .00000060  00000-0  00000-0 0  9997
2 24876  55.4567 184.5824 0039303  59.9331 300.5170  2.00565023167598
GPS BIIR-3  (PRN 11)    
1 25933U 99055A   20161.29604196 -.00000108  00000-0  00000-0 0  9997
2 25933  52.3036  30.3576 0158148 114.4635  67.5416  2.00558279151462
GPS BIIR-4  (PRN 20)    
1 26360U 00025A   20161.13188646 -.00000016  00000-0  00000-0 0  9999
2 26360  53.5262 109.5181 0050691 155.1288 305.5130  2.00565930147153
GPS BIIR-5  (PRN 28)    
1 26407U 00040A   20161.55791706 -.00000055  00000-0  00000-0 0  9994
2 26407  56.0017 302.4830 0186071 279.3020  91.5937  2.00564834145855
GPS BIIR-6  (PRN 14)    
1 26605U 00071A   20161.25540361  .00000034  00000-0  00000-0 0  9990
2 26605  55.0327 181.7765 0117045 250.7385 177.5814  2.00565815143436
GPS BIIR-8  (PRN 16)    
1 27663U 03005A   20161.12169115 -.00000055  00000-0  00000-0 0  9999
2 27663  56.0581 302.2865 0113551  35.4090 143.6945  2.00552275127194
GPS BIIR-9  (PRN 21)    
1 27704U 03010A   20161.18696318 -.00000091  00000-0  00000-0 0  9997
2 27704  54.6194  53.3355 0241256 284.1359 255.4967  2.00393153125997
GPS BIIR-10 (PRN 22)    
1 28129U 03058A   20161.15160363 -.00000012  00000-0  00000-0 0  9997
2 28129  53.3368 112.2337 0072659 293.9334  65.2700  2.00546814120680
GPS BIIR-11 (PRN 19)    
1 28190U 04009A   20161.40062139 -.00000099  00000-0  00000-0 0  9997
2 28190  56.2747   3.0709 0092139  93.8073  82.2204  2.00562417118876
GPS BIIR-13 (PRN 02)    
1 28474U 04045A   20161.51387510 -.00000091  00000-0  00000-0 0  9999
2 28474  54.9652  53.2002 0199491 267.0173 268.6442  2.00559185114338
GPS BIIRM-1 (PRN 17)    
1 28874U 05038A   20161.37579772 -.00000097  00000-0  00000-0 0  9999
2 28874  56.3780   0.4584 0134271 266.0393 272.7083  2.00559925107721
GPS BIIRM-2 (PRN 31)    
1 29486U 06042A   20160.84771354 -.00000001  00000-0  00000-0 0  9991
2 29486  54.8635 238.7240 0094827   6.2145  72.1335  2.00573355100435
GPS BIIRM-3 (PRN 12)    
1 29601U 06052A   20160.18815817 -.00000056  00000-0  00000-0 0  9991
2 29601  56.0460 301.2430 0078435  65.6513 295.1480  2.00563059 99330
GPS BIIRM-4 (PRN 15)    
1 32260U 07047A   20160.98969459  .00000032  00000-0  00000-0 0  9994
2 32260  53.1895 171.1402 0121394  49.8088 311.2685  2.00560582 92723
GPS BIIRM-5 (PRN 29)    
1 32384U 07062A   20160.06138791 -.00000097  00000-0  00000-0 0  9996
2 32384  56.4738   1.1844 0013120 115.7791  65.2402  2.00575757 91446
GPS BIIRM-6 (PRN 07)    
1 32711U 08012A   20161.40890094 -.00000007  00000-0  00000-0 0  9997
2 32711  54.6098 237.8070 0140923 223.6951 135.2511  2.00564786 89678
GPS BIIRM-8 (PRN 05)    
1 35752U 09043A   20159.61345153 -.00000016  00000-0  00000-0 0  9991
2 35752  54.5900 115.4371 0057533  44.2777 132.0659  2.00563404 79201
GPS BIIF-1  (PRN 25)    
1 36585U 10022A   20161.16485787 -.00000052  00000-0  00000-0 0  9996
2 36585  55.3191 297.2461 0089609  52.8738 269.7522  2.00550975 73487
GPS BIIF-2  (PRN 01)    
1 37753U 11036A   20161.34384834 -.00000084  00000-0  00000-0 0  9996
2 37753  56.1696  57.5935 0097574  44.0785 133.3332  2.00559743 65165
GPS BIIF-3  (PRN 24)    
1 38833U 12053A   20158.09960785  .00000026  00000-0  00000-0 0  9994
2 38833  53.6525 233.7970 0095342  37.1471 323.5828  2.00565677 56167
GPS BIIF-4  (PRN 27)    
1 39166U 13023A   20160.94865050 -.00000097  00000-0  00000-0 0  9997
2 39166  56.0413 357.1250 0081813  31.1681 329.3394  2.00565074 51761
GPS BIIF-5  (PRN 30)    
1 39533U 14008A   20161.45033706 -.00000010  00000-0  00000-0 0  9996
2 39533  53.7682 239.0932 0047368 199.0169 160.8740  2.00567468 45606
GPS BIIF-6  (PRN 06)    
1 39741U 14026A   20161.23136057 -.00000084  00000-0  00000-0 0  9997
2 39741  56.1441  57.1254 0020823 296.4915  63.3298  2.00578020 44432
GPS BIIF-7  (PRN 09)    
1 40105U 14045A   20159.32489687  .00000045  00000-0  00000-0 0  9997
2 40105  54.5904 176.3533 0012924 105.7125 254.4694  2.00557992 42825
GPS BIIF-8  (PRN 03)    
1 40294U 14068A   20161.18527607 -.00000001  00000-0  00000-0 0  9996
2 40294  55.3411 117.2102 0027453  37.3740 322.7771  2.00579038 41108
GPS BIIF-9  (PRN 26)    
1 40534U 15013A   20161.32535841 -.00000053  00000-0  00000-0 0  9996
2 40534  54.2343 295.2039 0046999  10.3465 349.7411  2.00568681 38157
GPS BIIF-10 (PRN 08)    
1 40730U 15033A   20161.48459042 -.00000097  00000-0  00000-0 0  9999
2 40730  55.5583 356.2793 0053779 353.6880   6.2665  2.00563563 35919
GPS BIIF-11 (PRN 10)    
1 41019U 15062A   20161.03722815 -.00000003  00000-0  00000-0 0  9991
2 41019  55.3376 117.0424 0057484 211.2719 148.3470  2.00564362 33726
GPS BIIF-12 (PRN 32)    
1 41328U 16007A   20161.12994428  .00000035  00000-0  00000-0 0  9999
2 41328  54.8263 176.7651 0041760 222.7907 136.9148  2.00557734 31782
GPS BIII-1  (PRN 04)    
1 43873U 18109A   20161.45587448  .00000035  00000-0  00000-0 0  9997
2 43873  55.0068 179.0189 0009051 223.2061 264.9391  2.00563402 11016
GPS BIII-2  (PRN 18)    
1 44506U 19056A   20149.92964120 -.00000054  00000-0  00000-0 0  9999
2 44506  55.2214  59.0301 0004347 173.0705 177.8165  2.00557568  5737
